     2.10           N: GPS NAV DATA                         RINEX VERSION / TYPE
teqc  2014Jan16     CORS User           20140308 23:45:10UTCPGM / RUN BY / DATE
Solaris x86 5.10|AMD64|cc SC5.8 -xarch=amd64|=+|=+          COMMENT
     2              NAVIGATION DATA                         COMMENT
RINGO/GLOBAL        NATIONAL GEODETIC SURVEY                COMMENT
    2.7940D-08  0.0000D+00 -1.1921D-07  5.9605D-08          ION ALPHA
    1.3312D+05 -1.6384D+04 -1.9661D+05 -6.5536D+04          ION BETA
   -2.793967723846D-09-7.993605777301D-15   405504     1782 DELTA-UTC: A0,A1,T,W
                                                            END OF HEADER
24 14  3  4 20  0  0.0-2.438435330990D-05-6.821210263300D-13 0.000000000000D+00
    7.500000000000D+01-7.490625000000D+01 4.759841123630D-09 2.608243846930D+00
   -3.909692168240D-06 1.947128912430D-03 6.945803761480D-06 5.153621744160D+03
    2.448000000000D+05-9.499490261080D-08 2.935340175530D+00-1.676380634310D-08
    9.576044547440D-01 2.432187500000D+02 2.226336510020D-01-8.242129032040D-09
   -4.039453973760D-10 1.000000000000D+00 1.782000000000D+03 0.000000000000D+00
    2.800000000000D+00 0.000000000000D+00 3.259629011150D-09 7.500000000000D+01
    2.376180000000D+05
24 14  3  4 21 59 44.0-2.439413219690D-05-6.821210263300D-13 0.000000000000D+00
    2.600000000000D+01-7.025000000000D+01 4.735554397710D-09-2.627022637280D+00
   -3.714114427570D-06 1.945981057360D-03 6.632879376410D-06 5.153623878480D+03
    2.519840000000D+05-9.685754776000D-08 2.935280807390D+00-9.872019290920D-08
    9.576014528360D-01 2.500937500000D+02 2.225948178420D-01-8.279273436400D-09
   -3.821587755900D-10 1.000000000000D+00 1.782000000000D+03 0.000000000000D+00
    2.000000000000D+00 0.000000000000D+00 3.259629011150D-09 2.600000000000D+01
    2.479080000000D+05
24 14  3  4 22  0  0.0-2.438947558400D-05-6.821210263300D-13 0.000000000000D+00
    8.100000000000D+01-7.025000000000D+01 4.735554397710D-09-2.624685536410D+00
   -3.714114427570D-06 1.945991069080D-03 6.632879376410D-06 5.153623880390D+03
    2.520000000000D+05-9.685754776000D-08 2.935280642080D+00-9.872019290920D-08
    9.576014586870D-01 2.500937500000D+02 2.225915526090D-01-8.279273436400D-09
   -3.821587755900D-10 1.000000000000D+00 1.782000000000D+03 0.000000000000D+00
    2.800000000000D+00 0.000000000000D+00 3.259629011150D-09 8.100000000000D+01
    2.448180000000D+05
25 14  3  3 20  0  0.0 1.705763861540D-05 1.591615728100D-12 0.000000000000D+00
    5.100000000000D+01 4.918750000000D+01 4.013024135220D-09 4.414984037120D-01
    2.585351467130D-06 3.259080811400D-03 1.170672476290D-05 5.153652044300D+03
    1.584000000000D+05-7.450580596920D-09-2.294083380230D+00 1.005828380590D-07
    9.756067910820D-01 1.581875000000D+02 6.113190311600D-01-7.858541373200D-09
    2.939408161320D-10 1.000000000000D+00 1.782000000000D+03 0.000000000000D+00
    2.000000000000D+00 0.000000000000D+00 5.587935447690D-09 5.100000000000D+01
    0.000000000000D+00
25 14  3  4  0  0  0.0 1.708045601850D-05 1.591615728100D-12 0.000000000000D+00
    8.200000000000D+01 3.671875000000D+01 4.006238304480D-09 2.541700143460D+00
    1.840293407440D-06 3.257846925410D-03 1.127272844320D-05 5.153652757640D+03
    1.728000000000D+05-5.401670932770D-08-2.294196234120D+00-7.450580596920D-08
    9.756113436830D-01 1.695312500000D+02 6.114999648680D-01-7.729964841210D-09
    3.203704875740D-10 1.000000000000D+00 1.782000000000D+03 0.000000000000D+00
    2.000000000000D+00 0.000000000000D+00 5.587935447690D-09 8.200000000000D+01
    1.656180000000D+05
25 14  3  4  2  0  0.0 1.709209755060D-05 1.591615728100D-12 0.000000000000D+00
    8.300000000000D+01 1.853125000000D+01 4.104456774460D-09-2.691262079470D+00
    9.275972843170D-07 3.260615631010D-03 1.168809831140D-05 5.153647556300D+03
    1.800000000000D+05 1.862645149230D-08-2.294252063460D+00-1.117587089540D-07
    9.756136390010D-01 1.614375000000D+02 6.114687461960D-01-7.753537367710D-09
    3.510860491220D-10 1.000000000000D+00 1.782000000000D+03 0.000000000000D+00
    2.000000000000D+00 0.000000000000D+00 5.587935447690D-09 8.300000000000D+01
    1.773300000000D+05
25 14  3  4  4  0  0.0 1.710327342150D-05 1.591615728100D-12 0.000000000000D+00
    9.000000000000D+01 1.378125000000D+01 4.095170424990D-09-1.640743939270D+00
    7.022172212600D-07 3.260263241830D-03 1.214444637300D-05 5.153649566650D+03
    1.872000000000D+05 5.774199962620D-08-2.294308344840D+00-1.490116119380D-08
    9.756164931540D-01 1.537812500000D+02 6.111445021070D-01-7.764252352160D-09
    4.296607514220D-10 1.000000000000D+00 1.782000000000D+03 0.000000000000D+00
    2.000000000000D+00 0.000000000000D+00 5.587935447690D-09 9.000000000000D+01
    1.800000000000D+05
25 14  3  4  6  0  0.0 1.711491495370D-05 1.591615728100D-12 0.000000000000D+00
    9.200000000000D+01 1.568750000000D+01 4.124457664290D-09-5.906596742490D-01
    8.679926395420D-07 3.259952995000D-03 1.236796379090D-05 5.153648723600D+03
    1.944000000000D+05 4.097819328310D-08-2.294364254650D+00 6.519258022310D-08
    9.756192156450D-01 1.504062500000D+02 6.112529204290D-01-7.831397752510D-09
    4.018024524210D-10 1.000000000000D+00 1.782000000000D+03 0.000000000000D+00
    2.000000000000D+00 0.000000000000D+00 5.587935447690D-09 9.200000000000D+01
    1.872000000000D+05
25 14  3  4  8  0  0.0 1.712609082460D-05 1.591615728100D-12 0.000000000000D+00
    9.300000000000D+01 2.718750000000D+01 4.025881850110D-09 4.595721787290D-01
    1.277774572370D-06 3.261767793450D-03 1.210719347000D-05 5.153652168270D+03
    2.016000000000D+05 0.000000000000D+00-2.294420639900D+00 6.891787052160D-08
    9.756220829640D-01 1.565625000000D+02 6.112130047090D-01-7.831397752510D-09
    3.903734002720D-10 1.000000000000D+00 1.782000000000D+03 0.000000000000D+00
    2.000000000000D+00 0.000000000000D+00 5.587935447690D-09 9.300000000000D+01
    1.944000000000D+05
25 14  3  4  9 59 44.0 1.713680103420D-05 1.591615728100D-12 0.000000000000D+00
    2.500000000000D+01 2.737500000000D+01 3.990523467220D-09 1.507743611070D+00
    1.290813088420D-06 3.261059988290D-03 1.137517392640D-05 5.153649814610D+03
    2.087840000000D+05-2.793967723850D-08-2.294476725250D+00 3.911554813380D-08
    9.756247659560D-01 1.655937500000D+02 6.108988723100D-01-7.823540038030D-09
    3.660866887410D-10 1.000000000000D+00 1.782000000000D+03 0.000000000000D+00
    2.000000000000D+00 0.000000000000D+00 5.587935447690D-09 2.500000000000D+01
    2.016000000000D+05
25 14  3  4 12  0  0.0 1.714797690510D-05 1.591615728100D-12 0.000000000000D+00
    5.300000000000D+01 1.706250000000D+01 3.824445204970D-09 2.559802402960D+00
    9.741634130480D-07 3.260317840610D-03 1.117773354050D-05 5.153652984620D+03
    2.160000000000D+05-5.587935447690D-09-2.294533158780D+00-7.264316082000D-08
    9.756279580430D-01 1.721250000000D+02 6.113641285360D-01-7.726750794740D-09
    4.064454883770D-10 1.000000000000D+00 1.782000000000D+03 0.000000000000D+00
    2.000000000000D+00 0.000000000000D+00 5.587935447690D-09 5.300000000000D+01
    2.142300000000D+05
25 14  3  4 14  0  0.0 1.715961843730D-05 1.591615728100D-12 0.000000000000D+00
    5.400000000000D+01-1.406250000000D+00 3.828373752850D-09-2.673210836320D+00
   -2.793967723850D-08 3.262986312620D-03 1.153908669950D-05 5.153647983550D+03
    2.232000000000D+05-1.117587089540D-08-2.294588084040D+00 3.725290298460D-08
    9.756311062430D-01 1.664687500000D+02 6.113816674610D-01-7.631746464300D-09
    3.593006806010D-10 1.000000000000D+00 1.782000000000D+03 0.000000000000D+00
    2.000000000000D+00 0.000000000000D+00 5.587935447690D-09 5.400000000000D+01
    2.200380000000D+05
25 14  3  4 16  0  0.0 1.717079430820D-05 1.591615728100D-12 0.000000000000D+00
    5.500000000000D+01-7.843750000000D+00 3.795515241300D-09-1.622613587360D+00
   -3.650784492490D-07 3.262586658820D-03 1.200102269650D-05 5.153650474550D+03
    2.304000000000D+05 3.166496753690D-08-2.294642377320D+00-1.154839992520D-07
    9.756332421030D-01 1.572187500000D+02 6.109752922250D-01-7.645675615940D-09
    2.289381076200D-10 1.000000000000D+00 1.782000000000D+03 0.000000000000D+00
    2.000000000000D+00 0.000000000000D+00 5.587935447690D-09 5.500000000000D+01
    2.232180000000D+05
25 14  3  4 18  0  0.0 1.718197017910D-05 1.591615728100D-12 0.000000000000D+00
    5.900000000000D+01-6.531250000000D+00 3.959093483560D-09-5.725328260270D-01
   -4.656612873080D-07 3.262139041910D-03 1.210905611510D-05 5.153649501800D+03
    2.376000000000D+05 4.656612873080D-08-2.294697466420D+00 8.568167686460D-08
    9.756338813990D-01 1.521250000000D+02 6.110846599800D-01-7.813539751010D-09
    1.460775132860D-10 1.000000000000D+00 1.782000000000D+03 0.000000000000D+00
    2.000000000000D+00 0.000000000000D+00 5.587935447690D-09 5.900000000000D+01
    2.374980000000D+05
25 14  3  4 20  0  0.0 1.719361171130D-05 1.591615728100D-12 0.000000000000D+00
    6.000000000000D+01 6.000000000000D+00 3.962665060910D-09 4.776600197030D-01
    3.557652235030D-07 3.263997030440D-03 1.176632940770D-05 5.153653013230D+03
    2.448000000000D+05-5.587935447690D-09-2.294753812180D+00 7.450580596920D-08
    9.756348717940D-01 1.567500000000D+02 6.110825621560D-01-7.825325956240D-09
    1.375057276650D-10 1.000000000000D+00 1.782000000000D+03 0.000000000000D+00
    2.000000000000D+00 0.000000000000D+00 5.587935447690D-09 6.000000000000D+01
    2.376180000000D+05
25 14  3  4 22  0  0.0 1.720478758220D-05 1.591615728100D-12 0.000000000000D+00
    6.300000000000D+01 8.281250000000D+00 4.052668809920D-09 1.528279229980D+00
    4.488974809650D-07 3.263203776440D-03 1.138262450700D-05 5.153649984360D+03
    2.520000000000D+05-4.842877388000D-08-2.294810116970D+00 6.891787052160D-08
    9.756358183020D-01 1.681562500000D+02 6.106540471180D-01-7.812825435540D-09
    1.371485699310D-10 1.000000000000D+00 1.782000000000D+03 0.000000000000D+00
    2.000000000000D+00 0.000000000000D+00 5.587935447690D-09 6.300000000000D+01
    2.448180000000D+05
